[Satellite]
VERSION=1.1
NAME=IRIDIUM 136 [+]
NICKNAME=IRIDIUM 136 [+]
TLE1=1 42962U 17061H   18020.92710538 -.00000000  00000-0 -71804-5 0  9991
TLE2=2 42962  86.3967 227.7765 0002311  73.5377 286.6072 14.34217930 14919
